IRIDIUM 39              
1 25042U 97069D   25102.39428055  .00001858  00000+0  48272-3 0  9997
2 25042  86.3910 239.3209 0018624 160.7025 199.4888 14.49102815439437
IRIDIUM 38              
1 25043U 97069E   25102.41483556  .00001104  00000+0  35860-3 0  9991
2 25043  86.3912 260.8259 0001427  29.9987 330.1292 14.38035688436509
IRIDIUM 42              
1 25077U 97077A   25102.41004999  .00001010  00000+0  33914-3 0  9991
2 25077  86.3910 266.9222 0001835  71.5366 288.6030 14.36276955431759
IRIDIUM 44              
1 25078U 97077B   25102.47252003  .00001078  00000+0  33511-3 0  9996
2 25078  86.3935 248.9787 0000989 156.0609 204.0636 14.40167084434249
IRIDIUM 45              
1 25104U 97082A   25102.39894848  .00026151  00000+0  10079-2 0  9994
2 25104  86.3557  79.7709 0121059 216.2905 143.0085 15.19533167442046
IRIDIUM 24              
1 25105U 97082B   25102.46046009  .00001101  00000+0  32958-3 0  9990
2 25105  86.3855 108.1882 0009323 301.8096  58.2196 14.42008891433741
IRIDIUM 51              
1 25262U 98018A   25102.41657135  .00043098  00000+0  11010-2 0  9993
2 25262  86.3810  88.2721 0099332 140.4780 220.3771 15.34277669436929
IRIDIUM 57              
1 25273U 98019B   25102.80435745  .00000700  00000+0  23506-3 0  9997
2 25273  86.4020 172.6405 0002192  93.3992 266.7456 14.35838206415618
